NORAD_CAT_ID,OBJECT_NAME,OBJECT_TYPE,EPOCH,MEAN_MOTION,ECCENTRICITY,INCLINATION,RA_OF_ASC_NODE,ARG_OF_PERICENTER,MEAN_ANOMALY,BSTAR,MEAN_MOTION_DOT,MEAN_MOTION_DDOT,TLE_LINE0,TLE_LINE1,TLE_LINE2,SEMIMAJOR_AXIS,PERIOD,APOGEE,PERIGEE,DECAYED
51977.0,STARLINK-3660,PAYLOAD,2023-10-03 16:04:44,15.08851013,0.0001698,53.2182,45.6046,94.9785,265.1401,0.0010031,0.00015717,0.0,0 STARLINK-3660,1 51977U 22025X   23276.66996448  .00015717  00000-0  10031-2 0  9990,2 51977  53.2182  45.6046 0001698  94.9785 265.1401 15.08851013 87278,6917.847,95.437,540.886,538.537,0.0
51977.0,STARLINK-3660,PAYLOAD,2023-10-04 09:33:59,15.08855592,0.0001664,53.2178,42.3338,92.266,267.8523,0.00070018,0.00010878,0.0,0 STARLINK-3660,1 51977U 22025X   23277.39860224  .00010878  00000-0  70018-3 0  9998,2 51977  53.2178  42.3338 0001664  92.2660 267.8523 15.08855592 88470,6917.833,95.437,540.849,538.547,0.0
51977.0,STARLINK-3660,PAYLOAD,2023-10-04 14:20:08,15.08855188,0.0001579,53.2178,41.4411,84.0844,276.0328,0.00054879,8.46e-05,0.0,0 STARLINK-3660,1 51977U 22025X   23277.59732089  .00008460  00000-0  54879-3 0  9998,2 51977  53.2178  41.4411 0001579  84.0844 276.0328 15.08855188 87419,6917.834,95.437,540.791,538.607,0.0
51977.0,STARLINK-3660,PAYLOAD,2023-10-04 17:30:54,15.08855498,0.0001588,53.2176,40.8452,83.5882,276.5291,0.00057344,8.854e-05,0.0,0 STARLINK-3660,1 51977U 22025X   23277.72979921  .00008854  00000-0  57344-3 0  9998,2 51977  53.2176  40.8452 0001588  83.5882 276.5291 15.08855498 87431,6917.833,95.437,540.797,538.599,0.0
51977.0,STARLINK-3660,PAYLOAD,2023-10-05 01:27:50,15.08844702,0.0001558,53.2176,39.3597,87.9166,272.2005,9.9913e-05,1.303e-05,0.0,0 STARLINK-3660,1 51977U 22025X   23278.06100085  .00001303  00000-0  99913-4 0  9994,2 51977  53.2176  39.3597 0001558  87.9166 272.2005 15.08844702 88572,6917.866,95.437,540.809,538.653,0.0
51977.0,STARLINK-3660,PAYLOAD,2023-10-05 14:10:55,15.08842555,0.0001275,53.2167,36.9825,79.5088,280.6048,5.9647e-05,6.62e-06,0.0,0 STARLINK-3660,1 51977U 22025X   23278.59092195  .00000662  00000-0  59647-4 0  9991,2 51977  53.2167  36.9825 0001275  79.5088 280.6048 15.08842555 87567,6917.873,95.437,540.62,538.856,0.0
51977.0,STARLINK-3660,PAYLOAD,2023-10-05 20:32:28,15.08842679,0.0001448,53.2166,35.7933,93.1671,266.9486,0.00013776,1.905e-05,0.0,0 STARLINK-3660,1 51977U 22025X   23278.85588327  .00001905  00000-0  13776-3 0  9990,2 51977  53.2166  35.7933 0001448  93.1671 266.9486 15.08842679 87600,6917.872,95.437,540.739,538.735,0.0
51977.0,STARLINK-3660,PAYLOAD,2023-10-06 14:01:43,15.08841119,0.0001652,53.2178,32.5215,97.4449,262.6731,0.00021889,3.197e-05,0.0,0 STARLINK-3660,1 51977U 22025X   23279.58452705  .00003197  00000-0  21889-3 0  9990,2 51977  53.2178  32.5215 0001652  97.4449 262.6731 15.08841119 87714,6917.877,95.437,540.885,538.599,0.0
51977.0,STARLINK-3660,PAYLOAD,2023-10-07 10:41:44,15.08841645,0.0001371,53.2169,28.6553,93.7433,266.3716,0.00027248,4.051e-05,0.0,0 STARLINK-3660,1 51977U 22025X   23280.44564994  .00004051  00000-0  27248-3 0  9996,2 51977  53.2169  28.6553 0001371  93.7433 266.3716 15.08841645 88938,6917.875,95.437,540.689,538.792,0.0
51977.0,STARLINK-3660,PAYLOAD,2023-10-07 13:52:30,15.08848888,0.0001608,53.2189,28.0612,93.0819,267.0358,0.00042281,6.449e-05,0.0,0 STARLINK-3660,1 51977U 22025X   23280.57812788  .00006449  00000-0  42281-3 0  9994,2 51977  53.2189  28.0612 0001608  93.0819 267.0358 15.08848888 87861,6917.853,95.437,540.831,538.606,0.0
51977.0,STARLINK-3660,PAYLOAD,2023-10-08 10:32:31,15.08843512,0.0001251,53.2174,24.1939,92.71,267.4035,0.00020625,2.996e-05,0.0,0 STARLINK-3660,1 51977U 22025X   23281.43924956  .00002996  00000-0  20625-3 0  9992,2 51977  53.2174  24.1939 0001251  92.7100 267.4035 15.08843512 89088,6917.87,95.437,540.6,538.869,0.0
51977.0,STARLINK-3660,PAYLOAD,2023-10-08 13:43:17,15.08851662,0.000137,53.2186,23.5992,90.1634,269.9515,0.00039419,5.993e-05,0.0,0 STARLINK-3660,1 51977U 22025X   23281.57172782  .00005993  00000-0  39419-3 0  9990,2 51977  53.2186  23.5992 0001370  90.1634 269.9515 15.08851662 88016,6917.845,95.437,540.657,538.762,0.0
51977.0,STARLINK-3660,PAYLOAD,2023-10-09 05:37:08,15.08844281,0.0001455,53.2191,20.6295,86.1592,273.9567,0.00014768,2.063e-05,0.0,0 STARLINK-3660,1 51977U 22025X   23282.23412746  .00002063  00000-0  14768-3 0  9996,2 51977  53.2191  20.6295 0001455  86.1592 273.9567 15.08844281 89201,6917.867,95.437,540.739,538.726,0.0
51977.0,STARLINK-3660,PAYLOAD,2023-10-09 13:34:03,15.08860065,0.0001456,53.2189,19.14,89.9865,270.1294,0.00042844,6.541e-05,0.0,0 STARLINK-3660,1 51977U 22025X   23282.56532164  .00006541  00000-0  42844-3 0  9990,2 51977  53.2189  19.1400 0001456  89.9865 270.1294 15.08860065 88162,6917.819,95.436,540.691,538.677,0.0
51977.0,STARLINK-3660,PAYLOAD,2023-10-10 13:24:50,15.08850716,0.0001463,53.219,14.6815,93.2951,266.8209,0.00020192,2.928e-05,0.0,0 STARLINK-3660,1 51977U 22025X   23283.55892101  .00002928  00000-0  20192-3 0  9997,2 51977  53.2190  14.6815 0001463  93.2951 266.8209 15.08850716 89404,6917.848,95.437,540.725,538.701,0.0
51977.0,STARLINK-3660,PAYLOAD,2023-10-10 16:35:36,15.08856558,0.0001422,53.2188,14.0845,87.9625,272.153,0.00034463,5.204e-05,0.0,0 STARLINK-3660,1 51977U 22025X   23283.69139831  .00005204  00000-0  34463-3 0  9992,2 51977  53.2188  14.0845 0001422  87.9625 272.1530 15.08856558 88339,6917.83,95.437,540.678,538.711,0.0
51977.0,STARLINK-3660,PAYLOAD,2023-10-11 13:15:38,15.08832897,0.0001603,53.2187,10.2189,88.224,271.8936,0.00029207,4.362e-05,0.0,0 STARLINK-3660,1 51977U 22025X   23284.55253019  .00004362  00000-0  29207-3 0  9997,2 51977  53.2187  10.2189 0001603  88.2240 271.8936 15.08832897 89556,6917.902,95.438,540.876,538.658,0.0
51977.0,STARLINK-3660,PAYLOAD,2023-10-12 05:09:30,15.08829502,0.0001715,53.2185,7.247,86.8493,273.2695,0.00021557,3.143e-05,0.0,0 STARLINK-3660,1 51977U 22025X   23285.21493943  .00003143  00000-0  21557-3 0  9999,2 51977  53.2185   7.2470 0001715  86.8493 273.2695 15.08829502 89659,6917.912,95.438,540.964,538.591,0.0
51977.0,STARLINK-3660,PAYLOAD,2023-10-12 13:06:27,15.08824921,0.0001626,53.2181,5.7619,84.4878,275.63,-2.954e-05,-7.58e-06,0.0,0 STARLINK-3660,1 51977U 22025X   23285.54614680 -.00000758  00000-0 -29540-4 0  9990,2 51977  53.2181   5.7619 0001626  84.4878 275.6300 15.08824921 88619,6917.926,95.439,540.916,538.667,0.0
51977.0,STARLINK-3660,PAYLOAD,2023-10-12 14:41:50,15.08827458,0.0001702,53.2169,5.4633,92.7762,267.3425,2.9432e-05,1.8e-06,0.0,0 STARLINK-3660,1 51977U 22025X   23285.61238659  .00000180  00000-0  29432-4 0  9993,2 51977  53.2169   5.4633 0001702  92.7762 267.3425 15.08827458 88622,6917.919,95.438,540.961,538.606,0.0
51977.0,STARLINK-3660,PAYLOAD,2023-10-13 12:57:13,15.08886598,0.0001466,53.2169,1.3005,88.1952,271.9208,0.0019942,0.00031633,0.0,0 STARLINK-3660,1 51977U 22025X   23286.53973655  .00031633  00000-0  19942-2 0  9997,2 51977  53.2169   1.3005 0001466  88.1952 271.9208 15.08886598 89853,6917.738,95.435,540.617,538.589,0.0
51977.0,STARLINK-3660,PAYLOAD,2023-10-13 19:18:45,15.08887814,0.0001502,53.2174,0.1113,89.0786,271.0378,0.001176,0.00018502,0.0,0 STARLINK-3660,1 51977U 22025X   23286.80468934  .00018502  00000-0  11760-2 0  9996,2 51977  53.2174   0.1113 0001502  89.0786 271.0378 15.08887814 89897,6917.734,95.435,540.638,538.56,0.0
51977.0,STARLINK-3660,PAYLOAD,2023-10-14 11:12:36,15.08866905,0.0001388,53.217,357.1372,100.5221,259.5927,0.0017447,0.00027609,0.0,0 STARLINK-3660,1 51977U 22025X   23287.46708549  .00027609  00000-0  17447-2 0  9994,2 51977  53.2170 357.1372 0001388 100.5221 259.5927 15.08866905 89990,6917.798,95.436,540.623,538.703,0.0
51977.0,STARLINK-3660,PAYLOAD,2023-10-14 22:20:18,15.08837948,0.0001272,53.217,355.0559,87.4594,272.6544,0.0016629,0.00026275,0.0,0 STARLINK-3660,1 51977U 22025X   23287.93077006  .00026275  00000-0  16629-2 0  9992,2 51977  53.2170 355.0559 0001272  87.4594 272.6544 15.08837948 90068,6917.887,95.438,540.632,538.872,0.0
51977.0,STARLINK-3660,PAYLOAD,2023-10-15 11:03:24,15.08816135,0.0001408,53.2174,352.6765,76.8517,283.2632,0.001814,0.00028681,0.0,0 STARLINK-3660,1 51977U 22025X   23288.46070235  .00028681  00000-0  18140-2 0  9991,2 51977  53.2174 352.6765 0001408  76.8517 283.2632 15.08816135 90142,6917.953,95.439,540.792,538.844,0.0
51977.0,STARLINK-3660,PAYLOAD,2023-10-16 10:54:11,15.08868875,0.0001541,53.2182,348.2172,74.5649,285.5513,0.0019083,0.00030237,0.0,0 STARLINK-3660,1 51977U 22025X   23289.45430264  .00030237  00000-0  19083-2 0  9990,2 51977  53.2182 348.2172 0001541  74.5649 285.5513 15.08868875 89209,6917.792,95.436,540.723,538.591,0.0
51977.0,STARLINK-3660,PAYLOAD,2023-10-17 10:44:58,15.08855739,0.0001443,53.2178,343.7568,86.0217,274.094,0.0014324,0.00022592,0.0,0 STARLINK-3660,1 51977U 22025X   23290.44789907  .00022592  00000-0  14324-2 0  9990,2 51977  53.2178 343.7568 0001443  86.0217 274.0940 15.08855739 90443,6917.832,95.437,540.696,538.699,0.0
51977.0,STARLINK-3660,PAYLOAD,2023-10-18 02:38:49,15.08847312,0.0001728,53.2184,340.7849,102.2489,257.8697,0.00066229,0.0001027,0.0,0 STARLINK-3660,1 51977U 22025X   23291.11029840  .00010270  00000-0  66229-3 0  9990,2 51977  53.2184 340.7849 0001728 102.2489 257.8697 15.08847312 89452,6917.858,95.437,540.918,538.528,0.0
51977.0,STARLINK-3660,PAYLOAD,2023-10-18 10:35:45,15.0884456,0.0001893,53.2191,339.2968,100.973,259.1475,0.00034665,5.234e-05,0.0,0 STARLINK-3660,1 51977U 22025X   23291.44149957  .00005234  00000-0  34665-3 0  9991,2 51977  53.2191 339.2968 0001893 100.9730 259.1475 15.08844560 90590,6917.866,95.437,541.041,538.422,0.0
51977.0,STARLINK-3660,PAYLOAD,2023-10-18 20:08:04,15.08846893,0.0001616,53.2182,337.5133,92.9579,267.1598,0.0004944,7.591e-05,0.0,0 STARLINK-3660,1 51977U 22025X   23291.83893952  .00007591  00000-0  49440-3 0  9990,2 51977  53.2182 337.5133 0001616  92.9579 267.1598 15.08846893 89560,6917.859,95.437,540.842,538.606,0.0
